{
  "norad_id": 65206,
  "name": "STARLINK-34763",
  "history": [
    {
      "epoch": "2026-03-28T15:16:25.971744",
      "apogee_km": 476.0677810814541,
      "perigee_km": 474.18039297808537,
      "latitude_deg": -19.780887961560158,
      "longitude_deg": 41.69552416005172,
      "semi_major_axis_km": 6853.261087029769,
      "eccentricity": 0.0001377,
      "inclination_deg": 53.1595,
      "raan_deg": 64.5515,
      "arg_perigee_deg": 83.8695,
      "mean_anomaly_deg": 276.2463,
      "mean_motion_rev_day": 15.30230472
    },
    {
      "epoch": "2026-03-29T05:22:54.151104",
      "apogee_km": 476.0426430382504,
      "perigee_km": 474.2648994121937,
      "latitude_deg": 20.741763518559075,
      "longitude_deg": 98.12683455995284,
      "semi_major_axis_km": 6853.290771225222,
      "eccentricity": 0.0001297,
      "inclination_deg": 53.1585,
      "raan_deg": 61.8216,
      "arg_perigee_deg": 78.5056,
      "mean_anomaly_deg": 281.609,
      "mean_motion_rev_day": 15.3022053
    }
  ]
}